[
    {
        "Altitude(m)": 559576.7347028403,
        "Argument of Periapsis(deg)": 0.019868973332140504,
        "Eccentricity": 0.0,
        "Inclination(deg)": 53.0,
        "Latitude(deg)": 51.72422143232021,
        "Longitude(deg)": 100.85754211209326,
        "Mean Anomaly(deg)": 101.18387860273276,
        "RAAN(deg)": 94.97043010558406,
        "Satellite Name": "Starlink Shell 1 422",
        "Satellite Number": 422,
        "Semi-Major Axis(m)": 6931778.249405717,
        "Time(s)": 570
    },
    {
        "Altitude(m)": 559540.0828929832,
        "Argument of Periapsis(deg)": 0.02021755181165174,
        "Eccentricity": 0.0,
        "Inclination(deg)": 53.0,
        "Latitude(deg)": 51.56343443851012,
        "Longitude(deg)": 101.78999130136991,
        "Mean Anomaly(deg)": 101.81070980628948,
        "RAAN(deg)": 94.96991133550658,
        "Satellite Name": "Starlink Shell 1 422",
        "Satellite Number": 422,
        "Semi-Major Axis(m)": 6931778.249405717,
        "Time(s)": 580
    },
    {
        "Altitude(m)": 559501.5794868707,
        "Argument of Periapsis(deg)": 0.020566130291162974,
        "Eccentricity": 0.0,
        "Inclination(deg)": 53.0,
        "Latitude(deg)": 51.39462491899223,
        "Longitude(deg)": 102.71543209319154,
        "Mean Anomaly(deg)": 102.43754100984619,
        "RAAN(deg)": 94.9693925654291,
        "Satellite Name": "Starlink Shell 1 422",
        "Satellite Number": 422,
        "Semi-Major Axis(m)": 6931778.249405717,
        "Time(s)": 590
    },
    {
        "Altitude(m)": 559461.247778943,
        "Argument of Periapsis(deg)": 0.020914708770674213,
        "Eccentricity": 0.0,
        "Inclination(deg)": 53.0,
        "Latitude(deg)": 51.21789890747805,
        "Longitude(deg)": 103.63362351242205,
        "Mean Anomaly(deg)": 103.06437221340289,
        "RAAN(deg)": 94.96887379535163,
        "Satellite Name": "Starlink Shell 1 422",
        "Satellite Number": 422,
        "Semi-Major Axis(m)": 6931778.249405717,
        "Time(s)": 600
    },
    {
        "Altitude(m)": 559419.1121869561,
        "Argument of Periapsis(deg)": 0.021263287250185448,
        "Eccentricity": 0.0,
        "Inclination(deg)": 53.0,
        "Latitude(deg)": 51.03336545923951,
        "Longitude(deg)": 104.54434100985634,
        "Mean Anomaly(deg)": 103.69120341695962,
        "RAAN(deg)": 94.96835502527418,
        "Satellite Name": "Starlink Shell 1 422",
        "Satellite Number": 422,
        "Semi-Major Axis(m)": 6931778.249405717,
        "Time(s)": 610
    },
    {
        "Altitude(m)": 559375.1982400143,
        "Argument of Periapsis(deg)": 0.021611865729696686,
        "Eccentricity": 0.0,
        "Inclination(deg)": 53.0,
        "Latitude(deg)": 50.84113636572456,
        "Longitude(deg)": 105.44737698883299,
        "Mean Anomaly(deg)": 104.31803462051634,
        "RAAN(deg)": 94.9678362551967,
        "Satellite Name": "Starlink Shell 1 422",
        "Satellite Number": 422,
        "Semi-Major Axis(m)": 6931778.249405717,
        "Time(s)": 620
    },
    {
        "Altitude(m)": 559329.532566062,
        "Argument of Periapsis(deg)": 0.02196044420920792,
        "Eccentricity": 0.0,
        "Inclination(deg)": 53.0,
        "Latitude(deg)": 50.64132587206568,
        "Longitude(deg)": 106.34253957821022,
        "Mean Anomaly(deg)": 104.94486582407306,
        "RAAN(deg)": 94.96731748511922,
        "Satellite Name": "Starlink Shell 1 422",
        "Satellite Number": 422,
        "Semi-Major Axis(m)": 6931778.249405717,
        "Time(s)": 630
    },
    {
        "Altitude(m)": 559282.1428788474,
        "Argument of Periapsis(deg)": 0.02230902268871916,
        "Eccentricity": 0.0,
        "Inclination(deg)": 53.0,
        "Latitude(deg)": 50.43405039880311,
        "Longitude(deg)": 107.22965385850058,
        "Mean Anomaly(deg)": 105.57169702762977,
        "RAAN(deg)": 94.96679871504175,
        "Satellite Name": "Starlink Shell 1 422",
        "Satellite Number": 422,
        "Semi-Major Axis(m)": 6931778.249405717,
        "Time(s)": 640
    },
    {
        "Altitude(m)": 559233.0579643204,
        "Argument of Periapsis(deg)": 0.022657601168230398,
        "Eccentricity": 0.0,
        "Inclination(deg)": 53.0,
        "Latitude(deg)": 50.21942826903669,
        "Longitude(deg)": 108.10856050292779,
        "Mean Anomaly(deg)": 106.19852823118646,
        "RAAN(deg)": 94.96627994496427,
        "Satellite Name": "Starlink Shell 1 422",
        "Satellite Number": 422,
        "Semi-Major Axis(m)": 6931778.249405717,
        "Time(s)": 650
    },
    {
        "Altitude(m)": 559182.3076665017,
        "Argument of Periapsis(deg)": 0.023006179647741636,
        "Eccentricity": 0.0,
        "Inclination(deg)": 53.0,
        "Latitude(deg)": 49.9975794420999,
        "Longitude(deg)": 108.97911604078006,
        "Mean Anomaly(deg)": 106.82535943474322,
        "RAAN(deg)": 94.9657611748868,
        "Satellite Name": "Starlink Shell 1 422",
        "Satellite Number": 422,
        "Semi-Major Axis(m)": 6931778.249405717,
        "Time(s)": 660
    },
    {
        "Altitude(m)": 559129.9228728428,
        "Argument of Periapsis(deg)": 0.023354758127252868,
        "Eccentricity": 0.0,
        "Inclination(deg)": 53.0,
        "Latitude(deg)": 49.768625254732555,
        "Longitude(deg)": 109.84119306718722,
        "Mean Anomaly(deg)": 107.45219063829991,
        "RAAN(deg)": 94.96524240480935,
        "Satellite Name": "Starlink Shell 1 422",
        "Satellite Number": 422,
        "Semi-Major Axis(m)": 6931778.249405717,
        "Time(s)": 670
    },
    {
        "Altitude(m)": 559075.9354990401,
        "Argument of Periapsis(deg)": 0.023703336606764106,
        "Eccentricity": 0.0,
        "Inclination(deg)": 53.0,
        "Latitude(deg)": 49.53268817060983,
        "Longitude(deg)": 110.69467889165493,
        "Mean Anomaly(deg)": 108.07902184185662,
        "RAAN(deg)": 94.96472363473187,
        "Satellite Name": "Starlink Shell 1 422",
        "Satellite Number": 422,
        "Semi-Major Axis(m)": 6931778.249405717,
        "Time(s)": 680
    },
    {
        "Altitude(m)": 559020.3784733469,
        "Argument of Periapsis(deg)": 0.024051915086275345,
        "Eccentricity": 0.0,
        "Inclination(deg)": 53.0,
        "Latitude(deg)": 49.289891538963666,
        "Longitude(deg)": 111.5394756563383,
        "Mean Anomaly(deg)": 108.70585304541332,
        "RAAN(deg)": 94.96420486465439,
        "Satellite Name": "Starlink Shell 1 422",
        "Satellite Number": 422,
        "Semi-Major Axis(m)": 6931778.249405717,
        "Time(s)": 690
    },
    {
        "Altitude(m)": 558963.2857203743,
        "Argument of Periapsis(deg)": 0.024400493565786583,
        "Eccentricity": 0.0,
        "Inclination(deg)": 53.0,
        "Latitude(deg)": 49.04035936291868,
        "Longitude(deg)": 112.37550041638467,
        "Mean Anomaly(deg)": 109.33268424897004,
        "RAAN(deg)": 94.96368609457691,
        "Satellite Name": "Starlink Shell 1 422",
        "Satellite Number": 422,
        "Semi-Major Axis(m)": 6931778.249405717,
        "Time(s)": 700
    },
    {
        "Altitude(m)": 558904.692144383,
        "Argument of Periapsis(deg)": 0.024749072045297815,
        "Eccentricity": 0.0,
        "Inclination(deg)": 53.0,
        "Latitude(deg)": 48.784216078051635,
        "Longitude(deg)": 113.20268367458371,
        "Mean Anomaly(deg)": 109.95951545252679,
        "RAAN(deg)": 94.96316732449944,
        "Satellite Name": "Starlink Shell 1 422",
        "Satellite Number": 422,
        "Semi-Major Axis(m)": 6931778.249405717,
        "Time(s)": 710
    },
    {
        "Altitude(m)": 558844.6336120868,
        "Argument of Periapsis(deg)": 0.025097650524809053,
        "Eccentricity": 0.0,
        "Inclination(deg)": 53.0,
        "Latitude(deg)": 48.52158634157327,
        "Longitude(deg)": 114.0209694010589,
        "Mean Anomaly(deg)": 110.58634665608346,
        "RAAN(deg)": 94.96264855442196,
        "Satellite Name": "Starlink Shell 1 422",
        "Satellite Number": 422,
        "Semi-Major Axis(m)": 6931778.249405717,
        "Time(s)": 720
    },
    {
        "Altitude(m)": 558783.1469349733,
        "Argument of Periapsis(deg)": 0.02544622900432029,
        "Eccentricity": 0.0,
        "Inclination(deg)": 53.0,
        "Latitude(deg)": 48.252594832430795,
        "Longitude(deg)": 114.83031502992826,
        "Mean Anomaly(deg)": 111.2131778596402,
        "RAAN(deg)": 94.9621297843445,
        "Satellite Name": "Starlink Shell 1 422",
        "Satellite Number": 422,
        "Semi-Major Axis(m)": 6931778.249405717,
        "Time(s)": 730
    },
    {
        "Altitude(m)": 558720.269851135,
        "Argument of Periapsis(deg)": 0.02579480748383153,
        "Eccentricity": 0.0,
        "Inclination(deg)": 53.0,
        "Latitude(deg)": 47.97736606253292,
        "Longitude(deg)": 115.63068992464738,
        "Mean Anomaly(deg)": 111.84000906319693,
        "RAAN(deg)": 94.96161101426704,
        "Satellite Name": "Starlink Shell 1 422",
        "Satellite Number": 422,
        "Semi-Major Axis(m)": 6931778.249405717,
        "Time(s)": 740
    },
    {
        "Altitude(m)": 558656.0410066243,
        "Argument of Periapsis(deg)": 0.026143385963342765,
        "Eccentricity": 0.0,
        "Inclination(deg)": 53.0,
        "Latitude(deg)": 47.69602419920749,
        "Longitude(deg)": 116.4220753421402,
        "Mean Anomaly(deg)": 112.46684026675364,
        "RAAN(deg)": 94.96109224418953,
        "Satellite Name": "Starlink Shell 1 422",
        "Satellite Number": 422,
        "Semi-Major Axis(m)": 6931778.249405717,
        "Time(s)": 750
    }
]